CCSDS_OMM_VERS = 2.0
CREATION_DATE  = 
ORIGINATOR     = 

OBJECT_NAME    = 1998-067XU
OBJECT_ID      = 1998-067XU
CENTER_NAME    = EARTH
REF_FRAME      = TEME
TIME_SYSTEM    = UTC
MEAN_ELEMENT_THEORY = SGP/SGP4

EPOCH          = 2026-01-26T17:15:36.384768
MEAN_MOTION    = 15.58755445
ECCENTRICITY   = .00030451
INCLINATION    = 51.6277
RA_OF_ASC_NODE = 277.8973
ARG_OF_PERICENTER = 125.4481
MEAN_ANOMALY   = 234.6796

EPHEMERIS_TYPE = 0
CLASSIFICATION_TYPE = U
NORAD_CAT_ID   = 66908
ELEMENT_SET_NO = 999
REV_AT_EPOCH   = 861
BSTAR          = .13859095E-2
MEAN_MOTION_DOT = .109964E-2
MEAN_MOTION_DDOT = 0

CCSDS_OMM_VERS = 2.0
CREATION_DATE  = 
ORIGINATOR     = 

OBJECT_NAME    = SILVERSAT
OBJECT_ID      = 1998-067XV
CENTER_NAME    = EARTH
REF_FRAME      = TEME
TIME_SYSTEM    = UTC
MEAN_ELEMENT_THEORY = SGP/SGP4

EPOCH          = 2026-01-26T16:53:35.108448
MEAN_MOTION    = 15.59807039
ECCENTRICITY   = .00034259
INCLINATION    = 51.6290
RA_OF_ASC_NODE = 277.7966
ARG_OF_PERICENTER = 139.8593
MEAN_ANOMALY   = 220.2654

EPHEMERIS_TYPE = 0
CLASSIFICATION_TYPE = U
NORAD_CAT_ID   = 66909
ELEMENT_SET_NO = 999
REV_AT_EPOCH   = 861
BSTAR          = .1489823E-2
MEAN_MOTION_DOT = .123288E-2
MEAN_MOTION_DDOT = 0

CCSDS_OMM_VERS = 2.0
CREATION_DATE  = 
ORIGINATOR     = 

OBJECT_NAME    = 1998-067XW
OBJECT_ID      = 1998-067XW
CENTER_NAME    = EARTH
REF_FRAME      = TEME
TIME_SYSTEM    = UTC
MEAN_ELEMENT_THEORY = SGP/SGP4

EPOCH          = 2026-01-26T17:02:11.935968
MEAN_MOTION    = 15.58968486
ECCENTRICITY   = .0001796
INCLINATION    = 51.6274
RA_OF_ASC_NODE = 277.8329
ARG_OF_PERICENTER = 120.5750
MEAN_ANOMALY   = 239.5420

EPHEMERIS_TYPE = 0
CLASSIFICATION_TYPE = U
NORAD_CAT_ID   = 66910
ELEMENT_SET_NO = 999
REV_AT_EPOCH   = 861
BSTAR          = .12748985E-2
MEAN_MOTION_DOT = .101823E-2
MEAN_MOTION_DDOT = 0

CCSDS_OMM_VERS = 2.0
CREATION_DATE  = 
ORIGINATOR     = 

OBJECT_NAME    = 1998-067XY
OBJECT_ID      = 1998-067XY
CENTER_NAME    = EARTH
REF_FRAME      = TEME
TIME_SYSTEM    = UTC
MEAN_ELEMENT_THEORY = SGP/SGP4

EPOCH          = 2026-01-26T18:02:01.888800
MEAN_MOTION    = 15.56746243
ECCENTRICITY   = .00026983
INCLINATION    = 51.6293
RA_OF_ASC_NODE = 278.1143
ARG_OF_PERICENTER = 103.6724
MEAN_ANOMALY   = 256.4568

EPHEMERIS_TYPE = 0
CLASSIFICATION_TYPE = U
NORAD_CAT_ID   = 66912
ELEMENT_SET_NO = 999
REV_AT_EPOCH   = 860
BSTAR          = .10464597E-2
MEAN_MOTION_DOT = .76536E-3
MEAN_MOTION_DDOT = 0

